{"fetched_at":"2026-07-17T17:38:34.954Z","source":"https://celestrak.org/NORAD/elements/gp.php?NAME=SENTINEL&FORMAT=JSON","constellation":"sentinel-6","records":[{"OBJECT_NAME":"SENTINEL-6A","OBJECT_ID":"2020-086A","EPOCH":"2026-07-17T01:35:57.866208","CLASSIFICATION_TYPE":"U","MEAN_MOTION":12.80930174,"ECCENTRICITY":0.00077771,"INCLINATION":66.0412,"RA_OF_ASC_NODE":72.9935,"ARG_OF_PERICENTER":269.7294,"MEAN_ANOMALY":90.283,"EPHEMERIS_TYPE":0,"NORAD_CAT_ID":46984,"ELEMENT_SET_NO":999,"REV_AT_EPOCH":26415,"BSTAR":0.000084160892,"MEAN_MOTION_DOT":-4.2e-7,"MEAN_MOTION_DDOT":0},{"OBJECT_NAME":"SENTINEL-6B","OBJECT_ID":"2025-264A","EPOCH":"2026-07-17T01:36:27.927360","CLASSIFICATION_TYPE":"U","MEAN_MOTION":12.80930176,"ECCENTRICITY":0.00078409,"INCLINATION":66.0412,"RA_OF_ASC_NODE":73.1188,"ARG_OF_PERICENTER":268.5819,"MEAN_ANOMALY":91.4298,"EPHEMERIS_TYPE":0,"NORAD_CAT_ID":66514,"ELEMENT_SET_NO":999,"REV_AT_EPOCH":3099,"BSTAR":0.000088133266,"MEAN_MOTION_DOT":-4.1e-7,"MEAN_MOTION_DDOT":0}]}
